start=new Date('2021-10-08T00:00:00.000Z').valueOf();
sats=[{"SITE":"AFETR","NORAD_CAT_ID":"45760","OBJECT_TYPE":"PAYLOAD","RCS_SIZE":"LARGE","RA_OF_ASC_NODE":"263.2888","BSTAR":"0.00017509000000","GP_ID":"186472189","EPHEMERIS_TYPE":"0","COUNTRY_CODE":"US","MEAN_MOTION":"15.06409016","TLE_LINE2":"2 45760  53.0543 263.2888 0001214  82.1931 277.9196 15.06409016 74096","CENTER_NAME":"EARTH","PERIOD":"95.592","PERIAPSIS":"546.345","ELEMENT_SET_NO":"999","INCLINATION":"53.0543","SEMIMAJOR_AXIS":"6925.321","ARG_OF_PERICENTER":"82.1931","TLE_LINE1":"1 45760U 20038AG  21280.43769284  .00002328  00000-0  17509-3 0  9991","DECAY_DATE":null,"MEAN_MOTION_DOT":"0.00002328","FILE":"3149535","REF_FRAME":"TEME","LAUNCH_DATE":"2020-06-13","CLASSIFICATION_TYPE":"U","MEAN_ELEMENT_THEORY":"SGP4","TIME_SYSTEM":"UTC","REV_AT_EPOCH":"7409","EPOCH":"2021-10-07T10:30:16.661376","MEAN_MOTION_DDOT":"0.0000000000000","MEAN_ANOMALY":"277.9196","ECCENTRICITY":"0.00012140","OBJECT_NAME":"STARLINK-1494","OBJECT_ID":"2020-038AG","APOAPSIS":"548.027"},{"FILE":"3150302","REF_FRAME":"TEME","DECAY_DATE":null,"MEAN_MOTION_DOT":"0.00007957","TLE_LINE1":"1 45761U 20038AH  21280.64018385  .00007957  00000-0  19220-3 0  9999","ARG_OF_PERICENTER":"38.3276","EPOCH":"2021-10-07T15:21:51.884640","MEAN_MOTION_DDOT":"0.0000000000000","TIME_SYSTEM":"UTC","REV_AT_EPOCH":"7340","MEAN_ELEMENT_THEORY":"SGP4","LAUNCH_DATE":"2020-06-13","CLASSIFICATION_TYPE":"U","OBJECT_NAME":"STARLINK-1495","ECCENTRICITY":"0.00020710","MEAN_ANOMALY":"321.7876","APOAPSIS":"441.194","OBJECT_ID":"2020-038AH","RA_OF_ASC_NODE":"248.7417","RCS_SIZE":"LARGE","NORAD_CAT_ID":"45761","OBJECT_TYPE":"PAYLOAD","SITE":"AFETR","COUNTRY_CODE":"US","EPHEMERIS_TYPE":"0","GP_ID":"186509400","BSTAR":"0.00019220000000","CENTER_NAME":"EARTH","TLE_LINE2":"2 45761  53.0545 248.7417 0002071  38.3276 321.7876 15.42144900 73407","MEAN_MOTION":"15.42144900","SEMIMAJOR_AXIS":"6817.917","INCLINATION":"53.0545","ELEMENT_SET_NO":"999","PERIAPSIS":"438.370","PERIOD":"93.376"},{"OBJECT_NAME":"STARLINK-1499","MEAN_ANOMALY":"289.3624","ECCENTRICITY":"0.00014630","APOAPSIS":"548.247","OBJECT_ID":"2020-038AJ","DECAY_DATE":null,"MEAN_MOTION_DOT":"-0.00000830","FILE":"3150302","REF_FRAME":"TEME","TLE_LINE1":"1 45762U 20038AJ  21280.67359681 -.00000830  00000-0 -36845-4 0  9998","ARG_OF_PERICENTER":"70.7523","TIME_SYSTEM":"UTC","REV_AT_EPOCH":"7321","EPOCH":"2021-10-07T16:09:58.764384","MEAN_MOTION_DDOT":"0.0000000000000","CLASSIFICATION_TYPE":"U","LAUNCH_DATE":"2020-06-13","MEAN_ELEMENT_THEORY":"SGP4","TLE_LINE2":"2 45762  53.0531 262.2276 0001463  70.7523 289.3624 15.06393385 73218","CENTER_NAME":"EARTH","MEAN_MOTION":"15.06393385","INCLINATION":"53.0531","SEMIMAJOR_AXIS":"6925.369","PERIAPSIS":"546.221","PERIOD":"95.593","ELEMENT_SET_NO":"999","NORAD_CAT_ID":"45762","OBJECT_TYPE":"PAYLOAD","RA_OF_ASC_NODE":"262.2276","RCS_SIZE":"LARGE","SITE":"AFETR","EPHEMERIS_TYPE":"0","GP_ID":"186509144","COUNTRY_CODE":"US","BSTAR":"-0.00003684500000"},{"MEAN_ANOMALY":"341.4471","ECCENTRICITY":"0.00028820","OBJECT_NAME":"STARLINK-1501","OBJECT_ID":"2020-038AK","APOAPSIS":"371.556","TLE_LINE1":"1 45763U 20038AK  21280.54199017  .00007815  00000-0  79521-4 0  9996","ARG_OF_PERICENTER":"18.6650","MEAN_MOTION_DOT":"0.00007815","DECAY_DATE":null,"FILE":"3149538","REF_FRAME":"TEME","LAUNCH_DATE":"2020-06-13","CLASSIFICATION_TYPE":"U","MEAN_ELEMENT_THEORY":"SGP4","REV_AT_EPOCH":"7472","TIME_SYSTEM":"UTC","MEAN_MOTION_DDOT":"0.0000000000000","EPOCH":"2021-10-07T13:00:27.950688","MEAN_MOTION":"15.66262830","TLE_LINE2":"2 45763  53.0545 218.4916 0002882  18.6650 341.4471 15.66262830 74729","CENTER_NAME":"EARTH","PERIAPSIS":"367.667","PERIOD":"91.939","ELEMENT_SET_NO":"999","INCLINATION":"53.0545","SEMIMAJOR_AXIS":"6747.746","SITE":"AFETR","NORAD_CAT_ID":"45763","OBJECT_TYPE":"PAYLOAD","RA_OF_ASC_NODE":"218.4916","RCS_SIZE":"LARGE","BSTAR":"0.00007952100000","EPHEMERIS_TYPE":"0","GP_ID":"186471737","COUNTRY_CODE":"US"},{"REV_AT_EPOCH":"7321","TIME_SYSTEM":"UTC","EPOCH":"2021-10-07T15:59:22.475904","MEAN_MOTION_DDOT":"0.0000000000000","LAUNCH_DATE":"2020-06-13","CLASSIFICATION_TYPE":"U","MEAN_ELEMENT_THEORY":"SGP4","MEAN_MOTION_DOT":"0.00002266","DECAY_DATE":null,"REF_FRAME":"TEME","FILE":"3150302","ARG_OF_PERICENTER":"63.6260","TLE_LINE1":"1 45764U 20038AL  21280.66623236  .00002266  00000-0  17095-3 0  9997","APOAPSIS":"548.281","OBJECT_ID":"2020-038AL","OBJECT_NAME":"STARLINK-1502","MEAN_ANOMALY":"296.4887","ECCENTRICITY":"0.00015390","GP_ID":"186510127","EPHEMERIS_TYPE":"0","COUNTRY_CODE":"US","BSTAR":"0.00017095000000","NORAD_CAT_ID":"45764","OBJECT_TYPE":"PAYLOAD","RCS_SIZE":"LARGE","RA_OF_ASC_NODE":"262.2508","SITE":"AFETR","INCLINATION":"53.0532","SEMIMAJOR_AXIS":"6925.350","PERIOD":"95.592","PERIAPSIS":"546.149","ELEMENT_SET_NO":"999","TLE_LINE2":"2 45764  53.0532 262.2508 0001539  63.6260 296.4887 15.06399555 73217","CENTER_NAME":"EARTH","MEAN_MOTION":"15.06399555"},{"RA_OF_ASC_NODE":"237.3411","RCS_SIZE":"LARGE","NORAD_CAT_ID":"45765","OBJECT_TYPE":"PAYLOAD","SITE":"AFETR","COUNTRY_CODE":"US","EPHEMERIS_TYPE":"0","GP_ID":"186472847","BSTAR":"0.00191330000000","CENTER_NAME":"EARTH","TLE_LINE2":"2 45765  53.0531 237.3411 0001261  84.2483 276.0561 15.86448053 74491","MEAN_MOTION":"15.86448053","SEMIMAJOR_AXIS":"6690.387","INCLINATION":"53.0531","ELEMENT_SET_NO":"999","PERIAPSIS":"311.409","PERIOD":"90.769","FILE":"3149635","REF_FRAME":"TEME","DECAY_DATE":null,"MEAN_MOTION_DOT":"0.00521530","TLE_LINE1":"1 45765U 20038AM  21280.89717075  .00521530  00000-0  19133-2 0  9992","ARG_OF_PERICENTER":"84.2483","MEAN_MOTION_DDOT":"0.0000000000000","EPOCH":"2021-10-07T21:31:55.552800","TIME_SYSTEM":"UTC","REV_AT_EPOCH":"7449","MEAN_ELEMENT_THEORY":"SGP4","LAUNCH_DATE":"2020-06-13","CLASSIFICATION_TYPE":"U","OBJECT_NAME":"STARLINK-1508","ECCENTRICITY":"0.00012610","MEAN_ANOMALY":"276.0561","APOAPSIS":"313.096","OBJECT_ID":"2020-038AM"},{"INCLINATION":"53.0554","SEMIMAJOR_AXIS":"6925.363","PERIOD":"95.592","PERIAPSIS":"546.280","ELEMENT_SET_NO":"999","TLE_LINE2":"2 45766  53.0554 263.2026 0001369  61.2530 298.8597 15.06395417 73165","CENTER_NAME":"EARTH","MEAN_MOTION":"15.06395417","GP_ID":"186460705","EPHEMERIS_TYPE":"0","COUNTRY_CODE":"US","BSTAR":"0.00013714000000","NORAD_CAT_ID":"45766","OBJECT_TYPE":"PAYLOAD","RCS_SIZE":"LARGE","RA_OF_ASC_NODE":"263.2026","SITE":"AFETR","APOAPSIS":"548.176","OBJECT_ID":"2020-038AN","OBJECT_NAME":"STARLINK-1509","MEAN_ANOMALY":"298.8597","ECCENTRICITY":"0.00013690","TIME_SYSTEM":"UTC","REV_AT_EPOCH":"7316","MEAN_MOTION_DDOT":"0.0000000000000","EPOCH":"2021-10-07T10:56:49.843680","LAUNCH_DATE":"2020-06-13","CLASSIFICATION_TYPE":"U","MEAN_ELEMENT_THEORY":"SGP4","DECAY_DATE":null,"MEAN_MOTION_DOT":"0.00001762","REF_FRAME":"TEME","FILE":"3149232","ARG_OF_PERICENTER":"61.2530","TLE_LINE1":"1 45766U 20038AN  21280.45613245  .00001762  00000-0  13714-3 0  9999"},{"ECCENTRICITY":"0.00014820","MEAN_ANOMALY":"286.1449","OBJECT_NAME":"STARLINK-1511","OBJECT_ID":"2020-038AP","APOAPSIS":"548.251","ARG_OF_PERICENTER":"73.9703","TLE_LINE1":"1 45767U 20038AP  21280.64779685 -.00000143  00000-0  93194-5 0  9997","FILE":"3150302","REF_FRAME":"TEME","MEAN_MOTION_DOT":"-0.00000143","DECAY_DATE":null,"MEAN_ELEMENT_THEORY":"SGP4","CLASSIFICATION_TYPE":"U","LAUNCH_DATE":"2020-06-13","EPOCH":"2021-10-07T15:32:49.647840","MEAN_MOTION_DDOT":"0.0000000000000","TIME_SYSTEM":"UTC","REV_AT_EPOCH":"7319","MEAN_MOTION":"15.06396511","CENTER_NAME":"EARTH","TLE_LINE2":"2 45767  53.0539 262.3399 0001482  73.9703 286.1449 15.06396511 73195","ELEMENT_SET_NO":"999","PERIOD":"95.592","PERIAPSIS":"546.198","SEMIMAJOR_AXIS":"6925.359","INCLINATION":"53.0539","SITE":"AFETR","RCS_SIZE":"LARGE","RA_OF_ASC_NODE":"262.3399","OBJECT_TYPE":"PAYLOAD","NORAD_CAT_ID":"45767","BSTAR":"0.00000931940000","COUNTRY_CODE":"US","GP_ID":"186509901","EPHEMERIS_TYPE":"0"},{"CLASSIFICATION_TYPE":"U","LAUNCH_DATE":"2020-06-13","MEAN_ELEMENT_THEORY":"SGP4","REV_AT_EPOCH":"7325","TIME_SYSTEM":"UTC","EPOCH":"2021-10-07T23:03:59.445216","MEAN_MOTION_DDOT":"0.0000000000000","ARG_OF_PERICENTER":"78.7487","TLE_LINE1":"1 45768U 20038AQ  21280.96110469  .00002393  00000-0  17950-3 0  9994","MEAN_MOTION_DOT":"0.00002393","DECAY_DATE":null,"FILE":"3150302","REF_FRAME":"TEME","OBJECT_ID":"2020-038AQ","APOAPSIS":"548.275","MEAN_ANOMALY":"281.3676","ECCENTRICITY":"0.00015500","OBJECT_NAME":"STARLINK-1521","BSTAR":"0.00017950000000","GP_ID":"186510628","EPHEMERIS_TYPE":"0","COUNTRY_CODE":"US","SITE":"AFETR","NORAD_CAT_ID":"45768","OBJECT_TYPE":"PAYLOAD","RCS_SIZE":"LARGE","RA_OF_ASC_NODE":"260.9360","PERIOD":"95.592","PERIAPSIS":"546.128","ELEMENT_SET_NO":"999","INCLINATION":"53.0546","SEMIMAJOR_AXIS":"6925.336","MEAN_MOTION":"15.06403972","TLE_LINE2":"2 45768  53.0546 260.9360 0001550  78.7487 281.3676 15.06403972 73250","CENTER_NAME":"EARTH"},{"OBJECT_NAME":"STARLINK-1459","MEAN_ANOMALY":"295.9332","ECCENTRICITY":"0.00012560","APOAPSIS":"548.104","OBJECT_ID":"2020-038AR","DECAY_DATE":null,"MEAN_MOTION_DOT":"0.00001331","REF_FRAME":"TEME","FILE":"3150302","ARG_OF_PERICENTER":"64.1787","TLE_LINE1":"1 45769U 20038AR  21280.71968180  .00001331  00000-0  10827-3 0  9996","REV_AT_EPOCH":"7293","TIME_SYSTEM":"UTC","EPOCH":"2021-10-07T17:16:20.507520","MEAN_MOTION_DDOT":"0.0000000000000","LAUNCH_DATE":"2020-06-13","CLASSIFICATION_TYPE":"U","MEAN_ELEMENT_THEORY":"SGP4","TLE_LINE2":"2 45769  53.0542 282.0186 0001256  64.1787 295.9332 15.06393225 72936","CENTER_NAME":"EARTH","MEAN_MOTION":"15.06393225","INCLINATION":"53.0542","SEMIMAJOR_AXIS":"6925.369","PERIOD":"95.593","PERIAPSIS":"546.364","ELEMENT_SET_NO":"999","NORAD_CAT_ID":"45769","OBJECT_TYPE":"PAYLOAD","RCS_SIZE":"LARGE","RA_OF_ASC_NODE":"282.0186","SITE":"AFETR","GP_ID":"186509401","EPHEMERIS_TYPE":"0","COUNTRY_CODE":"US","BSTAR":"0.00010827000000"}];
